{"spkid": "20879537", "covariance": {"epoch": "2459190.5", "labels": ["e", "q", "tp", "node", "peri", "i"], "data": [["3.886789761904329E-16", "-6.958029858853354E-16", "-5.495626627983205E-14", "-5.529966573465705E-14", "6.319641650788511E-15", "-7.923313263676556E-15"], ["-6.958029858853354E-16", "1.246524142396301E-15", "1.000437691559331E-13", "9.936582502754498E-14", "-9.842175115122847E-15", "1.402081068609817E-14"], ["-5.495626627983205E-14", "1.000437691559331E-13", "9.872683458343701E-11", "2.555941548560134E-11", "5.951503303718684E-11", "1.947482276282442E-12"], ["-5.529966573465705E-14", "9.936582502754498E-14", "2.555941548560134E-11", "2.961581598363718E-9", "-2.92602039329327E-9", "4.35027799905107E-11"], ["6.319641650788511E-15", "-9.842175115122847E-15", "5.951503303718684E-11", "-2.92602039329327E-9", "2.970339236068648E-9", "-4.112266206031102E-11"], ["-7.923313263676556E-15", "1.402081068609817E-14", "1.947482276282442E-12", "4.35027799905107E-11", "-4.112266206031102E-11", "7.864971200955682E-12"]], "elements": [{"name": "e", "sigma": 1.97149429669587e-08, "title": "eccentricity", "value": ".4293244379126714", "units": null, "label": "e"}, {"label": "q", "sigma": 3.53061487902079e-08, "name": "q", "units": "au", "title": "perihelion distance", "value": "1.019477495918891"}, {"label": "tp", "name": "tp", "sigma": 9.9361378102076e-06, "value": "2459396.273635789754", "title": "time of perihelion passage", "units": "TDB"}, {"sigma": 5.44204152718786e-05, "name": "om", "units": "deg", "title": "longitude of the ascending node", "value": "237.7682266147213", "label": "node"}, {"units": "deg", "title": "argument of perihelion", "value": "330.115886666627", "name": "w", "sigma": 5.450081867338e-05, "label": "peri"}, {"units": "deg", "title": "inclination", "value": "2.791887612524041", "sigma": 2.80445559796472e-06, "name": "i", "label": "i"}]}, "elements": [{"label": "e", "value": ".4294223609432367", "title": "eccentricity", "units": null, "sigma": "1.9744E-8", "name": "e"}, {"label": "a", "sigma": "1.4915E-9", "name": "a", "units": "au", "title": "semi-major axis", "value": "1.784929195432879"}, {"name": "q", "sigma": "3.5505E-8", "value": "1.01844068621358", "title": "perihelion distance", "units": "au", "label": "q"}, {"units": "deg", "value": "2.797535713645474", "title": "inclination; angle with respect to x-y ecliptic plane", "sigma": "2.8064E-6", "name": "i", "label": "i"}, {"name": "om", "sigma": "5.4297E-5", "units": "deg", "title": "longitude of the ascending node", "value": "237.5818071607275", "label": "node"}, {"value": "330.3546345888255", "title": "argument of perihelion", "units": "deg", "sigma": "5.4378E-5", "name": "w", "label": "peri"}, {"label": "M", "sigma": "4.3669E-6", "name": "ma", "title": "mean anomaly", "value": "24.89298264706326", "units": "deg"}, {"sigma": "1.0542E-5", "name": "tp", "title": "time of perihelion passage", "value": "2461140.271180320752", "units": "TDB", "label": "tp"}, {"value": "871.0235889345007", "title": "sidereal orbital period", "units": "d", "name": "per", "sigma": "1.0917E-6", "label": "period"}, {"label": "n", "sigma": "5.1803E-10", "name": "n", "units": "deg/d", "value": ".4133068318395121", "title": "mean motion"}, {"units": "au", "value": "2.551417704652178", "title": "aphelion distance", "sigma": "2.1319E-9", "name": "ad", "label": "Q"}], "epoch": "2461200.5"}